NORAD_CAT_ID,OBJECT_NAME,OBJECT_TYPE,EPOCH,MEAN_MOTION,ECCENTRICITY,INCLINATION,RA_OF_ASC_NODE,ARG_OF_PERICENTER,MEAN_ANOMALY,BSTAR,MEAN_MOTION_DOT,MEAN_MOTION_DDOT,TLE_LINE0,TLE_LINE1,TLE_LINE2,SEMIMAJOR_AXIS,PERIOD,APOGEE,PERIGEE,DECAYED
53780.0,STARLINK-4678,PAYLOAD,2024-07-20 22:25:32,15.08890207,0.000116,53.2166,73.2519,96.2248,263.8876,0.00042329,6.464e-05,0.0,0 STARLINK-4678,1 53780U 22111H   24202.93440635  .00006464  00000-0  42329-3 0  9997,2 53780  53.2166  73.2519 0001160  96.2248 263.8876 15.08890207103604,6917.727,95.434,540.394,538.789,0.0
53780.0,STARLINK-4678,PAYLOAD,2024-07-21 20:41:00,15.08837564,0.000132,53.2175,69.0983,85.3978,274.7165,-3.3218e-05,-8.16e-06,0.0,0 STARLINK-4678,1 53780U 22111H   24203.86180599 -.00000816  00000-0 -33218-4 0  9995,2 53780  53.2175  69.0983 0001320  85.3978 274.7165 15.08837564102933,6917.888,95.438,540.666,538.84,0.0
53780.0,STARLINK-4678,PAYLOAD,2024-07-21 22:16:24,15.08826088,0.0001447,53.2184,68.7999,95.599,264.5167,-4.6725e-05,-1.031e-05,0.0,0 STARLINK-4678,1 53780U 22111H   24203.92805843 -.00001031  00000-0 -46725-4 0  9995,2 53780  53.2184  68.7999 0001447  95.5990 264.5167 15.08826088103752,6917.923,95.438,540.789,538.787,0.0
53780.0,STARLINK-4678,PAYLOAD,2024-07-21 23:51:47,15.08827134,0.0001474,53.2184,68.5015,97.3674,262.7485,-3.7742e-05,-8.88e-06,0.0,0 STARLINK-4678,1 53780U 22111H   24203.99429783 -.00000888  00000-0 -37742-4 0  9995,2 53780  53.2184  68.5015 0001474  97.3674 262.7485 15.08827134102955,6917.92,95.438,540.804,538.765,0.0
53780.0,STARLINK-4678,PAYLOAD,2024-07-22 22:07:10,15.0884315,0.0001754,53.2175,64.334,119.557,240.5597,-5.4706e-05,-1.159e-05,0.0,0 STARLINK-4678,1 53780U 22111H   24204.92165003 -.00001159  00000-0 -54706-4 0  9992,2 53780  53.2175  64.3340 0001754 119.5570 240.5597 15.08843150103903,6917.871,95.437,540.949,538.522,0.0
53780.0,STARLINK-4678,PAYLOAD,2024-07-23 01:17:56,15.08838996,0.0001742,53.2152,63.7371,103.8773,256.2413,-5.0186e-05,-1.087e-05,0.0,0 STARLINK-4678,1 53780U 22111H   24205.05412742 -.00001087  00000-0 -50186-4 0  9990,2 53780  53.2152  63.7371 0001742 103.8773 256.2413 15.08838996103119,6917.883,95.438,540.954,538.543,0.0
53780.0,STARLINK-4678,PAYLOAD,2024-07-23 07:39:28,15.08847241,0.0001795,53.2162,62.5485,76.6124,283.5068,-0.00015374,-2.735e-05,0.0,0 STARLINK-4678,1 53780U 22111H   24205.31908122 -.00002735  00000-0 -15374-3 0  9991,2 53780  53.2162  62.5485 0001795  76.6124 283.5068 15.08847241103154,6917.858,95.437,540.965,538.482,0.0
53780.0,STARLINK-4678,PAYLOAD,2024-07-23 23:33:21,15.08832261,0.0002021,53.2167,59.5747,84.0008,276.1214,0.00019491,2.815e-05,0.0,0 STARLINK-4678,1 53780U 22111H   24205.98149915  .00002815  00000-0  19491-3 0  9992,2 53780  53.2167  59.5747 0002021  84.0008 276.1214 15.08832261103251,6917.904,95.438,541.167,538.371,0.0
53780.0,STARLINK-4678,PAYLOAD,2024-07-25 13:42:35,15.08852708,0.0002175,53.2163,52.438,80.1513,279.9725,0.00026996,4.012e-05,0.0,0 STARLINK-4678,1 53780U 22111H   24207.57124871  .00004012  00000-0  26996-3 0  9992,2 53780  53.2163  52.4380 0002175  80.1513 279.9725 15.08852708103492,6917.842,95.437,541.211,538.202,0.0
53780.0,STARLINK-4678,PAYLOAD,2024-07-26 13:33:22,15.08841658,9.05e-05,53.2159,47.9775,90.6468,269.4628,4.2904e-05,3.95e-06,0.0,0 STARLINK-4678,1 53780U 22111H   24208.56484634  .00000395  00000-0  42904-4 0  9996,2 53780  53.2159  47.9775 0000905  90.6468 269.4628 15.08841658103643,6917.875,95.437,540.366,539.114,0.0
53780.0,STARLINK-4678,PAYLOAD,2024-07-26 21:30:18,15.0883957,0.0001333,53.2172,46.49,86.3375,273.7769,0.00014489,2.019e-05,0.0,0 STARLINK-4678,1 53780U 22111H   24208.89604781  .00002019  00000-0  14489-3 0  9990,2 53780  53.2172  46.4900 0001333  86.3375 273.7769 15.08839570104507,6917.882,95.438,540.669,538.825,0.0
53780.0,STARLINK-4678,PAYLOAD,2024-07-28 05:18:02,15.0883162,0.0001466,53.2172,40.5443,85.6524,274.4635,3.0266e-05,1.94e-06,0.0,0 STARLINK-4678,1 53780U 22111H   24210.22085759  .00000194  00000-0  30266-4 0  9992,2 53780  53.2172  40.5443 0001466  85.6524 274.4635 15.08831620103898,6917.906,95.438,540.785,538.757,0.0
53780.0,STARLINK-4678,PAYLOAD,2024-07-28 19:36:29,15.08841574,0.0001417,53.2186,37.8677,88.7546,271.3609,0.0001252,1.705e-05,0.0,0 STARLINK-4678,1 53780U 22111H   24210.81701300  .00001705  00000-0  12520-3 0  9995,2 53780  53.2186  37.8677 0001417  88.7546 271.3609 15.08841574103981,6917.876,95.437,540.721,538.76,0.0
53780.0,STARLINK-4678,PAYLOAD,2024-07-28 21:11:52,15.08843558,0.0001428,53.2188,37.57,89.782,270.3335,0.00014168,1.968e-05,0.0,0 STARLINK-4678,1 53780U 22111H   24210.88325205  .00001968  00000-0  14168-3 0  9999,2 53780  53.2188  37.5700 0001428  89.7820 270.3335 15.08843558104806,6917.87,95.437,540.722,538.747,0.0
53780.0,STARLINK-4678,PAYLOAD,2024-07-29 13:05:45,15.08831633,0.0001466,53.2191,34.5937,92.6342,267.4818,7.9284e-05,9.74e-06,0.0,0 STARLINK-4678,1 53780U 22111H   24211.54566593  .00000974  00000-0  79284-4 0  9997,2 53780  53.2191  34.5937 0001466  92.6342 267.4818 15.08831633104098,6917.906,95.438,540.785,538.757,0.0
53780.0,STARLINK-4678,PAYLOAD,2024-07-29 21:02:41,15.08833719,0.0001282,53.218,33.1116,97.9215,262.1923,0.00015085,2.113e-05,0.0,0 STARLINK-4678,1 53780U 22111H   24211.87686621  .00002113  00000-0  15085-3 0  9993,2 53780  53.2180  33.1116 0001282  97.9215 262.1923 15.08833719104954,6917.9,95.438,540.651,538.878,0.0
53780.0,STARLINK-4678,PAYLOAD,2024-07-30 04:59:36,15.08835956,0.0001271,53.2176,31.6246,93.4869,266.6268,0.0001326,1.823e-05,0.0,0 STARLINK-4678,1 53780U 22111H   24212.20806495  .00001823  00000-0  13260-3 0  9994,2 53780  53.2176  31.6246 0001271  93.4869 266.6268 15.08835956105003,6917.893,95.438,540.637,538.878,0.0
53780.0,STARLINK-4678,PAYLOAD,2024-07-30 20:53:27,15.08857639,0.0001201,53.2167,28.651,94.7464,265.3665,0.00031802,4.779e-05,0.0,0 STARLINK-4678,1 53780U 22111H   24212.87045421  .00004779  00000-0  31802-3 0  9996,2 53780  53.2167  28.6510 0001201  94.7464 265.3665 15.08857639104290,6917.826,95.436,540.522,538.861,0.0
53780.0,STARLINK-4678,PAYLOAD,2024-07-31 04:50:21,15.08851472,0.0002972,53.2173,27.1648,253.3367,106.7299,0.0001599,2.258e-05,0.0,0 STARLINK-4678,1 53780U 22111H   24213.20163816  .00002258  00000-0  15990-3 0  9993,2 53780  53.2173  27.1648 0002972 253.3367 106.7299 15.08851472105150,6917.845,95.437,541.766,537.654,0.0
53780.0,STARLINK-4678,PAYLOAD,2024-07-31 20:44:14,15.08847683,7.36e-05,53.219,24.1862,51.7932,308.3126,0.00016275,2.304e-05,0.0,0 STARLINK-4678,1 53780U 22111H   24213.86405776  .00002304  00000-0  16275-3 0  9998,2 53780  53.2190  24.1862 0000736  51.7932 308.3126 15.08847683104447,6917.857,95.437,540.231,539.213,0.0
53780.0,STARLINK-4678,PAYLOAD,2024-08-01 11:02:42,15.08842823,0.0001008,53.2177,21.5102,90.4591,269.6516,-2.7264e-05,-7.22e-06,0.0,0 STARLINK-4678,1 53780U 22111H   24214.46021891 -.00000722  00000-0 -27264-4 0  9992,2 53780  53.2177  21.5102 0001008  90.4591 269.6516 15.08842823104537,6917.872,95.437,540.434,539.039,0.0
53780.0,STARLINK-4678,PAYLOAD,2024-08-01 20:35:00,15.08857013,0.0001367,53.2201,19.7282,95.2442,264.8706,0.00018685,2.688e-05,0.0,0 STARLINK-4678,1 53780U 22111H   24214.85764509  .00002688  00000-0  18685-3 0  9992,2 53780  53.2201  19.7282 0001367  95.2442 264.8706 15.08857013104590,6917.828,95.436,540.639,538.748,0.0
53780.0,STARLINK-4678,PAYLOAD,2024-08-02 04:31:57,15.08837638,0.0001254,53.2204,18.2413,96.2801,263.8334,1.7833e-05,-4e-08,0.0,0 STARLINK-4678,1 53780U 22111H   24215.18886159 -.00000004  00000-0  17833-4 0  9991,2 53780  53.2204  18.2413 0001254  96.2801 263.8334 15.08837638104641,6917.888,95.438,540.62,538.885,0.0
53780.0,STARLINK-4678,PAYLOAD,2024-08-02 14:04:17,15.0883032,0.0001513,53.2187,16.4554,108.8689,251.2467,-1.7331e-06,-3.16e-06,0.0,0 STARLINK-4678,1 53780U 22111H   24215.58630901 -.00000316  00000-0 -17331-5 0  9998,2 53780  53.2187  16.4554 0001513 108.8689 251.2467 15.08830320105515,6917.91,95.438,540.822,538.728,0.0
53780.0,STARLINK-4678,PAYLOAD,2024-08-02 17:15:03,15.08829232,0.0001428,53.2189,15.8621,103.7288,256.3863,2.7953e-06,-2.43e-06,0.0,0 STARLINK-4678,1 53780U 22111H   24215.71879050 -.00000243  00000-0  27953-5 0  9992,2 53780  53.2189  15.8621 0001428 103.7288 256.3863 15.08829232104727,6917.913,95.438,540.766,538.79,0.0
53780.0,STARLINK-4678,PAYLOAD,2024-08-03 13:55:03,15.08847206,0.0001397,53.2188,11.9986,94.0747,266.0405,9.0861e-05,1.159e-05,0.0,0 STARLINK-4678,1 53780U 22111H   24216.57989802  .00001159  00000-0  90861-4 0  9997,2 53780  53.2188  11.9986 0001397  94.0747 266.0405 15.08847206105669,6917.858,95.437,540.69,538.757,0.0
53780.0,STARLINK-4678,PAYLOAD,2024-08-03 17:05:49,15.08849407,0.0001207,53.2193,11.4025,100.4083,259.7045,0.0002002,2.901e-05,0.0,0 STARLINK-4678,1 53780U 22111H   24216.71237509  .00002901  00000-0  20020-3 0  9998,2 53780  53.2193  11.4025 0001207 100.4083 259.7045 15.08849407104875,6917.852,95.437,540.552,538.882,0.0
53780.0,STARLINK-4678,PAYLOAD,2024-08-04 13:45:50,15.08840394,0.000132,53.2191,7.5392,94.4355,265.6788,0.00026542,3.939e-05,0.0,0 STARLINK-4678,1 53780U 22111H   24217.57350259  .00003939  00000-0  26542-3 0  9998,2 53780  53.2191   7.5392 0001320  94.4355 265.6788 15.08840394105817,6917.879,95.438,540.657,538.831,0.0
53780.0,STARLINK-4678,PAYLOAD,2024-08-04 20:07:22,15.08859241,0.0001462,53.2173,6.3428,104.3051,255.8104,0.00039615,6.026e-05,0.0,0 STARLINK-4678,1 53780U 22111H   24217.83845399  .00006026  00000-0  39615-3 0  9996,2 53780  53.2173   6.3428 0001462 104.3051 255.8104 15.08859241105044,6917.822,95.436,540.698,538.675,0.0
53780.0,STARLINK-4678,PAYLOAD,2024-08-05 02:28:55,15.08856357,0.0001306,53.216,5.1525,63.8522,296.2604,0.00045634,6.985e-05,0.0,0 STARLINK-4678,1 53780U 22111H   24218.10341738  .00006985  00000-0  45634-3 0  9997,2 53780  53.2160   5.1525 0001306  63.8522 296.2604 15.08856357105087,6917.83,95.437,540.599,538.792,0.0
